{"type": "FeatureCollection", "features": [ {"type": "Feature", "properties": {"norad_id": 33867, "name": "IRIDIUM 33 DEB", "group": "iridium-33-debris", "lat": 35.754007327385054, "lon": -10.750961592492592, "alt_km": 318.4720442728203, "timestamp": "2025-12-19T08:58:49.721762+00:00", "meta": {"OBJECT_NAME": "IRIDIUM 33 DEB", "OBJECT_ID": "1997-051AL", "EPOCH": "2025-12-18T17:38:10.165632", "MEAN_MOTION": 15.79918724, "ECCENTRICITY": 0.00134544, "INCLINATION": 86.3657, "RA_OF_ASC_NODE": 346.9641, "ARG_OF_PERICENTER": 94.2288, "MEAN_ANOMALY": 266.0526, "EPHEMERIS_TYPE": 0, "CLASSIFICATION_TYPE": "U", "NORAD_CAT_ID": 33867, "ELEMENT_SET_NO": 999, "REV_AT_EPOCH": 89605, "BSTAR": 0.007082286, "MEAN_MOTION_DOT": 0.01474763, "MEAN_MOTION_DDOT": 0}, "tle": {"line1": "1 33867U 97051AL  25352.73483988  .01474763  00000+0  70823-2 0  9999", "line2": "2 33867  86.3657 346.9641 0013454  94.2288 266.0526 15.79918724896055"}}, "geometry": {"type": "Point", "coordinates": [-10.750961592492592, 35.754007327385054]}}, {"type": "Feature", "properties": {"norad_id": 33870, "name": "IRIDIUM 33 DEB", "group": "iridium-33-debris", "lat": -81.60789737739941, "lon": 29.964886179519, "alt_km": 754.6169865802776, "timestamp": "2025-12-19T08:58:49.721773+00:00", "meta": {"OBJECT_NAME": "IRIDIUM 33 DEB", "OBJECT_ID": "1997-051AP", "EPOCH": "2025-12-18T17:20:39.314400", "MEAN_MOTION": 14.45881075, "ECCENTRICITY": 0.00221051, "INCLINATION": 86.3746, "RA_OF_ASC_NODE": 55.6965, "ARG_OF_PERICENTER": 158.9069, "MEAN_ANOMALY": 329.4105, "EPHEMERIS_TYPE": 0, "CLASSIFICATION_TYPE": "U", "NORAD_CAT_ID": 33870, "ELEMENT_SET_NO": 999, "REV_AT_EPOCH": 88223, "BSTAR": 0.0005316684, "MEAN_MOTION_DOT": 1.914e-05, "MEAN_MOTION_DDOT": 0}, "tle": {"line1": "1 33870U 97051AP  25352.72267725  .00001914  00000+0  53167-3 0  9997", "line2": "2 33870  86.3746  55.6965 0022105 158.9069 329.4105 14.45881075882231"}}, "geometry": {"type": "Point", "coordinates": [29.964886179519, -81.60789737739941]}}, {"type": "Feature", "properties": {"norad_id": 33881, "name": "IRIDIUM 33 DEB", "group": "iridium-33-debris", "lat": 41.573100923178245, "lon": 107.07232521159449, "alt_km": 716.3176033360023, "timestamp": "2025-12-19T08:58:49.721785+00:00", "meta": {"OBJECT_NAME": "IRIDIUM 33 DEB", "OBJECT_ID": "1997-051BA", "EPOCH": "2025-12-18T18:38:37.341312", "MEAN_MOTION": 14.56678227, "ECCENTRICITY": 0.00614608, "INCLINATION": 86.3861, "RA_OF_ASC_NODE": 104.1184, "ARG_OF_PERICENTER": 155.2089, "MEAN_ANOMALY": 356.6087, "EPHEMERIS_TYPE": 0, "CLASSIFICATION_TYPE": "U", "NORAD_CAT_ID": 33881, "ELEMENT_SET_NO": 999, "REV_AT_EPOCH": 87588, "BSTAR": 0.0015458281, "MEAN_MOTION_DOT": 7.103e-05, "MEAN_MOTION_DDOT": 0}, "tle": {"line1": "1 33881U 97051BA  25352.77682108  .00007103  00000+0  15458-2 0  9996", "line2": "2 33881  86.3861 104.1184 0061460 155.2089 356.6087 14.56678227875882"}}, "geometry": {"type": "Point", "coordinates": [107.07232521159449, 41.573100923178245]}}, {"type": "Feature", "properties": {"norad_id": 33884, "name": "IRIDIUM 33 DEB", "group": "iridium-33-debris", "lat": 53.232772039565376, "lon": -178.05106683201407, "alt_km": 638.5865110592031, "timestamp": "2025-12-19T08:58:49.721796+00:00", "meta": {"OBJECT_NAME": "IRIDIUM 33 DEB", "OBJECT_ID": "1997-051BD", "EPOCH": "2025-12-18T11:58:04.433088", "MEAN_MOTION": 14.77541028, "ECCENTRICITY": 0.00092581, "INCLINATION": 86.3692, "RA_OF_ASC_NODE": 7.219, "ARG_OF_PERICENTER": 301.5803, "MEAN_ANOMALY": 210.9745, "EPHEMERIS_TYPE": 0, "CLASSIFICATION_TYPE": "U", "NORAD_CAT_ID": 33884, "ELEMENT_SET_NO": 999, "REV_AT_EPOCH": 88932, "BSTAR": 0.0012713868, "MEAN_MOTION_DOT": 9.106e-05, "MEAN_MOTION_DDOT": 0}, "tle": {"line1": "1 33884U 97051BD  25352.49866242  .00009106  00000+0  12714-2 0  9998", "line2": "2 33884  86.3692   7.2190 0009258 301.5803 210.9745 14.77541028889322"}}, "geometry": {"type": "Point", "coordinates": [-178.05106683201407, 53.232772039565376]}}, {"type": "Feature", "properties": {"norad_id": 33886, "name": "IRIDIUM 33 DEB", "group": "iridium-33-debris", "lat": 35.99338800812412, "lon": -118.19722073939492, "alt_km": 766.629814709162, "timestamp": "2025-12-19T08:58:49.721807+00:00", "meta": {"OBJECT_NAME": "IRIDIUM 33 DEB", "OBJECT_ID": "1997-051BF", "EPOCH": "2025-12-18T16:07:41.003904", "MEAN_MOTION": 14.36058837, "ECCENTRICITY": 0.00127909, "INCLINATION": 86.3827, "RA_OF_ASC_NODE": 64.7319, "ARG_OF_PERICENTER": 220.2535, "MEAN_ANOMALY": 255.8567, "EPHEMERIS_TYPE": 0, "CLASSIFICATION_TYPE": "U", "NORAD_CAT_ID": 33886, "ELEMENT_SET_NO": 999, "REV_AT_EPOCH": 88137, "BSTAR": 0.00015284877, "MEAN_MOTION_DOT": 4.64e-06, "MEAN_MOTION_DDOT": 0}, "tle": {"line1": "1 33886U 97051BF  25352.67200236  .00000464  00000+0  15285-3 0  9990", "line2": "2 33886  86.3827  64.7319 0012790 220.2535 255.8567 14.36058837881372"}}, "geometry": {"type": "Point", "coordinates": [-118.19722073939492, 35.99338800812412]}}, {"type": "Feature", "properties": {"norad_id": 33887, "name": "IRIDIUM 33 DEB", "group": "iridium-33-debris", "lat": 71.56172956822033, "lon": 169.35417183922263, "alt_km": 760.9785282012735, "timestamp": "2025-12-19T08:58:49.721818+00:00", "meta": {"OBJECT_NAME": "IRIDIUM 33 DEB", "OBJECT_ID": "1997-051BG", "EPOCH": "2025-12-18T19:39:57.441312", "MEAN_MOTION": 14.372263, "ECCENTRICITY": 0.00050495, "INCLINATION": 86.3041, "RA_OF_ASC_NODE": 0.7721, "ARG_OF_PERICENTER": 201.7113, "MEAN_ANOMALY": 277.8089, "EPHEMERIS_TYPE": 0, "CLASSIFICATION_TYPE": "U", "NORAD_CAT_ID": 33887, "ELEMENT_SET_NO": 999, "REV_AT_EPOCH": 88252, "BSTAR": 0.00011616514, "MEAN_MOTION_DOT": 3.66e-06, "MEAN_MOTION_DDOT": 0}, "tle": {"line1": "1 33887U 97051BG  25352.81941483  .00000366  00000+0  11617-3 0  9999", "line2": "2 33887  86.3041   0.7721 0005049 201.7113 277.8089 14.37226300882527"}}, "geometry": {"type": "Point", "coordinates": [169.35417183922263, 71.56172956822033]}}, {"type": "Feature", "properties": {"norad_id": 33953, "name": "IRIDIUM 33 DEB", "group": "iridium-33-debris", "lat": 35.76242332730076, "lon": 53.51034650055222, "alt_km": 696.9347768921798, "timestamp": "2025-12-19T08:58:49.721829+00:00", "meta": {"OBJECT_NAME": "IRIDIUM 33 DEB", "OBJECT_ID": "1997-051BN", "EPOCH": "2025-12-18T15:14:55.461696", "MEAN_MOTION": 14.5537891, "ECCENTRICITY": 0.00180649, "INCLINATION": 86.3845, "RA_OF_ASC_NODE": 51.2209, "ARG_OF_PERICENTER": 84.8917, "MEAN_ANOMALY": 42.7226, "EPHEMERIS_TYPE": 0, "CLASSIFICATION_TYPE": "U", "NORAD_CAT_ID": 33953, "ELEMENT_SET_NO": 999, "REV_AT_EPOCH": 88389, "BSTAR": 0.00081934216, "MEAN_MOTION_DOT": 3.584e-05, "MEAN_MOTION_DDOT": 0}, "tle": {"line1": "1 33953U 97051BN  25352.63536414  .00003584  00000+0  81934-3 0  9991", "line2": "2 33953  86.3845  51.2209 0018064  84.8917  42.7226 14.55378910883896"}}, "geometry": {"type": "Point", "coordinates": [53.51034650055222, 35.76242332730076]}}, {"type": "Feature", "properties": {"norad_id": 33960, "name": "IRIDIUM 33 DEB", "group": "iridium-33-debris", "lat": -16.150637180510888, "lon": 107.47236214393962, "alt_km": 621.2616141983326, "timestamp": "2025-12-19T08:58:49.721839+00:00", "meta": {"OBJECT_NAME": "IRIDIUM 33 DEB", "OBJECT_ID": "1997-051BV", "EPOCH": "2025-12-18T21:04:17.238720", "MEAN_MOTION": 14.85489781, "ECCENTRICITY": 0.00074649, "INCLINATION": 86.254, "RA_OF_ASC_NODE": 286.6192, "ARG_OF_PERICENTER": 52.1098, "MEAN_ANOMALY": 12.0352, "EPHEMERIS_TYPE": 0, "CLASSIFICATION_TYPE": "U", "NORAD_CAT_ID": 33960, "ELEMENT_SET_NO": 999, "REV_AT_EPOCH": 88958, "BSTAR": 0.0022083229, "MEAN_MOTION_DOT": 0.0001912, "MEAN_MOTION_DDOT": 0}, "tle": {"line1": "1 33960U 97051BV  25352.87797730  .00019120  00000+0  22083-2 0  9997", "line2": "2 33960  86.2540 286.6192 0007464  52.1098  12.0352 14.85489781889584"}}, "geometry": {"type": "Point", "coordinates": [107.47236214393962, -16.150637180510888]}}, {"type": "Feature", "properties": {"norad_id": 33966, "name": "IRIDIUM 33 DEB", "group": "iridium-33-debris", "lat": 24.753770706462728, "lon": 44.84736432936211, "alt_km": 730.8083876754572, "timestamp": "2025-12-19T08:58:49.721850+00:00", "meta": {"OBJECT_NAME": "IRIDIUM 33 DEB", "OBJECT_ID": "1997-051CB", "EPOCH": "2025-12-18T15:23:51.544320", "MEAN_MOTION": 14.49616316, "ECCENTRICITY": 0.00080643, "INCLINATION": 86.3918, "RA_OF_ASC_NODE": 43.4945, "ARG_OF_PERICENTER": 169.3872, "MEAN_ANOMALY": 354.7755, "EPHEMERIS_TYPE": 0, "CLASSIFICATION_TYPE": "U", "NORAD_CAT_ID": 33966, "ELEMENT_SET_NO": 999, "REV_AT_EPOCH": 88527, "BSTAR": 0.00039110994, "MEAN_MOTION_DOT": 1.522e-05, "MEAN_MOTION_DDOT": 0}, "tle": {"line1": "1 33966U 97051CB  25352.64156880  .00001522  00000+0  39111-3 0  9991", "line2": "2 33966  86.3918  43.4945 0008064 169.3872 354.7755 14.49616316885274"}}, "geometry": {"type": "Point", "coordinates": [44.84736432936211, 24.753770706462728]}}, {"type": "Feature", "properties": {"norad_id": 34071, "name": "IRIDIUM 33 DEB", "group": "iridium-33-debris", "lat": 85.96924923502435, "lon": 80.05312659564574, "alt_km": 712.7677878717004, "timestamp": "2025-12-19T08:58:49.721860+00:00", "meta": {"OBJECT_NAME": "IRIDIUM 33 DEB", "OBJECT_ID": "1997-051CE", "EPOCH": "2025-12-18T14:21:00.592128", "MEAN_MOTION": 14.49489321, "ECCENTRICITY": 0.00099496, "INCLINATION": 86.345, "RA_OF_ASC_NODE": 15.282, "ARG_OF_PERICENTER": 91.6671, "MEAN_ANOMALY": 268.5673, "EPHEMERIS_TYPE": 0, "CLASSIFICATION_TYPE": "U", "NORAD_CAT_ID": 34071, "ELEMENT_SET_NO": 999, "REV_AT_EPOCH": 88419, "BSTAR": 0.00044954259, "MEAN_MOTION_DOT": 1.742e-05, "MEAN_MOTION_DDOT": 0}, "tle": {"line1": "1 34071U 97051CE  25352.59792352  .00001742  00000+0  44954-3 0  9998", "line2": "2 34071  86.3450  15.2820 0009949  91.6671 268.5673 14.49489321884194"}}, "geometry": {"type": "Point", "coordinates": [80.05312659564574, 85.96924923502435]}}]}